#dP2020  7 18  0  0  0.00000000      96 __u+U ITR00 FIT  IAC
## 2114 518400.00000000   900.00000000 59048 0.0000000000000
+  116   C06C07C08C09C10C11C12C13C14C16C19C20C21C22C23C24C25
+        C26C27C28C29C30C32C33C34C35C36C37C38C39C40C43C44C45
+        C46E01E02E03E04E05E07E08E09E11E12E13E14E15E18E19E21
+        E24E25E26E27E30E31E33E36G01G02G03G04G05G06G07G08G09
+        G10G11G12G13G14G15G16G17G18G19G20G21G22G23G24G25G26
+        G27G28G29G30G31G32J01J02J03R01R02R03R04R05R07R08R09
+        R11R12R13R14R15R16R17R18R19R20R21R23R24R26  0  0  0
++         9  9  6  8  7  7  7  8  7  9  5  7  7  6  7  8  6
++         8  6  8  7  7  6  9  7  7  7  7  6  6 13 10  9  8
++         9  5  6  7  6  7  6  6  6  6  6  6  6  6  7  6  6
++         6  6  5  7  6  6  5  6  6  6  6  6  7  6  6  5  5
++         6  6  7  6  6  7  7  5  6  6  6  5  6  9  7  6  6
++         6  7  5  5  5  5  8  7  9  7  6  6  6  7  6  7  6
++         6  6  6  5  7  7  7  7  5  8  7  7  7  6  0  0  0
%c M  cc GPS ccc cccc cccc cccc cccc ccccc ccccc ccccc ccccc
%c cc cc ccc ccc cccc cccc cccc cccc ccccc ccccc ccccc ccccc
%f  0.0000000  0.000000000  0.00000000000  0.000000000000000
%f  0.0000000  0.000000000  0.00000000000  0.000000000000000
%i    0    0    0    0      0      0      0      0         0
%i    0    0    0    0      0      0      0      0         0
/* INFORMATION & ANALYSIS CENTER (IAC)      ULTRA-RAPID DATA
/* S/V CLOCKS ARE ALIGNED TO GNSS TIME                      
/* G:C1WC2W R:C1PC2P E:C1XC5X C:C2IC6I J:C1CC2S             
/* PCV:IGS14_2113 OL/AL:FES2004  NONE     YN ORB:CoN CLK:CoN
*  2020 07 18 14 45  0.00000000
PC06 -10988.813631  22361.061835  34424.819158    785.681342
PC07 -22869.640323  33090.082717 -13303.019966    151.176922
PC08  -7308.845804  36490.716166 -19428.672449 999999.999999
PC09   4375.791367  27784.728254  31786.003423    684.625575
PC10 -11203.614549  33583.471050 -23016.885349   -233.625024
PC11 -14233.266097 -21086.993372  11581.747683   -498.755414
PC12   3425.234976 -16143.029649  22534.907007    436.216277
PC13   1513.156641  41480.535586  -6406.496847    549.428459
PC14  -5610.172351 -14947.189452 -22857.922264    686.541022
PC16  -8304.568267  22800.876266  34571.928946   -598.479772
PC19  15257.592200   9613.323217  21317.126456    478.998244
PC20  -3977.871270  17679.537647  21248.966621   -838.710084
PC21  21605.997380 -15455.827159  -8483.236829   -660.815381
PC22  26075.855520  -4180.443101   8968.969387   -771.112471
PC23 -16378.883150   1011.604556  22583.345059   -844.219795
PC24   2252.446211 -27727.763664   2305.802842   -762.395966
PC25 -10762.327268 -18404.816718  18012.817577   -690.356777
PC26  12235.120097 -21009.260456 -13725.646810    759.294627
PC27 -12782.023325   9929.348406 -22750.848315    366.458238
PC28 -23401.353305  -6415.130955 -13793.249787   -194.959001
PC29  20971.351709  18134.780238  -3184.460173    257.666850
PC30   5682.777177  20099.688394 -18520.013274    348.246225
PC32 -21487.456469  15654.279435   8525.185308   -876.636122
PC33 -15295.198007  -9565.001007 -21289.635712   -798.204045
PC34  -6086.008527 -20248.828950  18191.802692   -899.019159
PC35  23688.368383   5767.418703  13599.365857   -744.334327
PC36  10179.100613  18861.905534 -17845.243767   -872.533935
PC37 -13014.851857  20148.512923  14281.073054   -872.871366
PC38  -7401.071373  37452.891875 -17751.908201     89.612101
PC39  -6647.563924  23280.358632  34526.642887     19.419297
PC40 -19791.898921  30080.705478 -22088.875116 999999.999999
PC43 -20686.411627 -18391.011951   3459.057468 999999.999999
PC44  12723.728667 -10250.842274  22616.773079   -318.879588
PC45  16247.274459  -1093.768566 -22650.802980    182.786876
PC46  -1812.831847  27687.183683  -2838.888823    730.440040
PE01  20058.533429 -19817.068056  -8992.829285   -900.884754
PE02 -20034.863611  19882.234162   8911.172218    148.166287
PE03 -23599.138236   9542.295371  15126.362828   -321.944594
PE04   4295.345003 -16808.773741 -23972.336664   -568.329215
PE05 -29280.856529  -3415.497173  -2706.886309   -362.204077
PE07  17809.592911  14290.218614  18839.083927   -410.606021
PE08  -3937.037141  16728.596402  24108.402585   6147.878922
PE09 -18042.487612 -14008.862991 -18826.653764   5992.667190
PE11 -15640.890336 -24871.741880  -3547.603136   4186.246908
PE12  -1962.528364 -25325.942300  15177.938033   5700.246145
PE13  15606.379495  24937.118978   3296.395272    402.408011
PE14  23888.971576  12230.926609  -3417.824491  -1088.614311
PE15   2276.773991  25388.333889 -15047.915154    859.546833
PE18 -28160.723540  -1186.692998 -11524.899134  -1191.819448
PE19  25003.124510  -8236.994338 -13522.801994     30.821786
PE21  19199.900783  -2107.215883 -22425.807023   -610.786563
PE24  -6832.239810 -17536.614864  22841.892138   5344.393705
PE25 -19159.163822   1968.026319  22488.233200   -513.798834
PE26  19782.855023   9412.589975  19900.579430   2945.713977
PE27   7145.409331  17216.086979 -22988.006906    174.843106
PE30  -9483.913680  26323.538581  -9658.762965   3737.437971
PE31   9026.145325 -26330.147243  10068.895712   -473.271577
PE33  12398.246857 -10919.066597  24559.254817   -464.781545
PE36 -19772.166171  -9837.159957 -19709.824091    532.496862
PG01  14611.612441  -1751.669203  21888.329297     26.709312
PG02 -13784.040447 -19519.880761 -11001.062353   -489.100128
PG03  22012.697809  -9979.191052  10824.924732   -243.490554
PG04  23042.272280  -1626.245859 -13127.015180   -113.942166
PG05 -13763.863352  -7870.413428 -21475.148921    -16.915988
PG06  -6170.236858 -25798.599888   -691.190104   -304.676554
PG07   7382.041496 -19547.803981 -15782.542737   -330.071026
PG08  25909.634037   5950.576608   2514.653726    -41.382675
PG09  13960.277197 -10657.776182 -19978.002043   -255.701608
PG10  -6915.859538  20597.499292  15196.139131   -403.090963
PG11  20274.522500   5918.322623  15421.937968   -217.674031
PG12 -22488.771446   8407.278511  10956.672206     92.133048
PG13 -22510.393255 -13609.985810  -4169.516845     27.841748
PG14  12196.140834  17382.619131  16422.020675      2.292814
PG15 -26393.368356  -3363.598321   2591.390904   -216.696282
PG16  15166.207444   6360.190232 -21169.271736   -184.291136
PG17  -3360.297580 -16320.188377  21117.966925    297.788441
PG18  -7360.534517  19941.852039 -15918.318330    249.271493
PG19 -11398.489131 -17045.846934  16606.808569   -130.372390
PG20 -14492.198592  21764.095155   3814.647373    527.271765
PG21   7074.296282  25744.391088   -613.532376     25.171036
PG22  20299.151675  -3563.125188  16881.774085   -771.149908
PG23 -14749.414229  20935.843114   7012.987174      7.026526
PG24 -16115.951579   -211.418767  20953.270144    -15.822891
PG25 -20269.748706  16823.820119   1787.484285     24.722996
PG26   4163.404384  16490.535262 -20380.634171    245.568902
PG27  22132.198853  12705.875879  -8105.160387   -348.965977
PG28   7097.170980 -19729.006479  16973.445181    698.382846
PG29 -18069.836054   6090.150018 -18551.747034   -153.044070
PG30    478.780627 -25485.174585  -6999.668596   -264.519389
PG31   6789.880973  25282.261342  -2682.080360    -56.400170
PG32   5139.687269  16539.990583  20263.139609    318.994129
PJ01 -30784.743018  26747.435340  15944.456050   -199.582581
PJ02 -31611.099648  25605.840398  16015.273256     -1.398950
PJ03 -24203.655163  18316.491449 -24663.201920     -0.123198
PR01 -16210.246204  -5604.096611 -18883.347071     64.734045
PR02 -24973.268360   5043.931499   -231.056257    436.849502
PR03 -16373.226698  11255.253154  16011.636004     18.768473
PR04   1334.107832  10800.466911  23098.593216     56.733959
PR05  18354.019333   4396.798447  17183.010306     54.292047
PR07  15996.603127 -11306.129934 -16323.143258    -38.563476
PR08  -1329.741500 -10890.642175 -22972.225374    -53.533889
PR09  13167.539483 -12604.071226 -17791.827121    144.079704
PR11   1288.089702 -22620.864086  11682.357258    -30.958425
PR12  -7711.669528 -10219.480326  22095.866603    148.152915
PR13 -12801.095737   8668.869825  20280.192754    -41.361609
PR14 -10472.522144  22380.625535   6392.409324     53.471922
PR15  -2048.130194  22970.798680 -10882.508832    106.950033
PR16   8406.971840   9345.753588 -22194.123354     -4.709481
PR17  -4449.886710  10607.125631 -22760.614909    342.254699
PR18   9167.053059  19589.430180 -13557.505101     42.721411
PR19  17171.098049  18708.039214   2373.760059   -102.899434
PR20  15830.319994   5495.152749  19248.007017   -417.051113
PR21   3572.515101 -11338.671382  22565.727064   -138.954462
PR23 -18561.489829 -14815.235886  -9327.377895    319.459478
PR24 -15860.209512  -4464.119194 -19469.042456      6.721987
PR26  17643.684784   9264.006079  15909.976473   -365.285435
EOF
